{"fetched_at":"2026-03-27T07:04:08Z","count":10282,"tles":[{"name":"SL-3 R/B","line1":"1 13154U 82039B   26085.48680497  .00002468  00000+0  14843-3 0  9995","line2":"2 13154  81.1570 196.5945 0028783 269.0264  90.7664 15.10171878384178","category":"Other"},{"name":"SL-3 R/B","line1":"1 13819U 83010B   26085.45267071  .00014787  00000+0  29158-3 0  9991","line2":"2 13819  81.1052 341.6892 0016251 354.4772   5.6290 15.46914021360533","category":"Other"},{"name":"SL-16 R/B","line1":"1 16182U 85097B   26085.44735753  .00000046  00000+0  46811-4 0  9999","line2":"2 16182  71.0009 105.2731 0009504 240.1328 221.7684 14.16603392 89602","category":"Other"},{"name":"SL-3 R/B","line1":"1 13403U 82079B   26085.53068991  .00005649  00000+0  22315-3 0  9998","line2":"2 13403  81.1481 173.1930 0025557 109.3361 251.0639 15.25021798380262","category":"Other"},{"name":"SL-8 R/B","line1":"1 11574U 79089B   26085.39171039  .00000259  00000+0  86231-4 0  9994","line2":"2 11574  74.0682  60.1227 0016832 230.7384 129.2280 14.42360075438519","category":"Other"},{"name":"SL-14 R/B","line1":"1 13553U 82092B   26085.55594878  .00000404  00000+0  42607-4 0  9990","line2":"2 13553  82.5662 125.6218 0018927 243.1860 277.5297 14.86681056331432","category":"Other"},{"name":"SL-12 R/B(2)","line1":"1 15772U 85042D   26085.37597671  .00000115  00000+0  73228-4 0  9999","line2":"2 15772  71.1081  52.4723 0032849 100.4881  11.2275 14.21986990116761","category":"Other"},{"name":"SL-3 R/B","line1":"1 12465U 81046B   26085.45937380  .00011151  00000+0  25593-3 0  9992","line2":"2 12465  81.2288 269.5969 0018342 323.0983  36.8996 15.42394627441015","category":"Other"},{"name":"SL-3 R/B","line1":"1 13068U 82013B   26085.47817196  .00003555  00000+0  15269-3 0  9999","line2":"2 13068  81.1743 141.0932 0023432 122.2707 238.0800 15.22165662406905","category":"Other"},{"name":"COSMOS 1536","line1":"1 14699U 84013A   26085.46363705  .00005887  00000+0  24093-3 0  9998","line2":"2 14699  82.5420  91.1692 0013103 217.1448 142.8884 15.24044911275173","category":"Other"},{"name":"SL-8 R/B","line1":"1 15483U 85006B   26085.42594449  .00000320  00000+0  11459-3 0  9999","line2":"2 15483  74.0446 230.3495 0017778 143.4077 274.4762 14.37795069156432","category":"Other"},{"name":"SL-3 R/B","line1":"1 12904U 81103B   26085.54263721  .00004682  00000+0  20617-3 0  9998","line2":"2 12904  81.1604 193.6630 0012689 226.2615 133.7566 15.21571372975798","category":"Other"},{"name":"SL-3 R/B","line1":"1 14208U 83075B   26085.46631517  .00010114  00000+0  26371-3 0  9990","line2":"2 14208  97.6146  90.6841 0021983 164.6073 195.5845 15.38802372332732","category":"Other"},{"name":"SL-8 R/B","line1":"1 12139U 81003B   26085.48726602  .00021371  00000+0  53669-3 0  9999","line2":"2 12139  82.9344 274.4826 0261106 120.1697 242.5682 15.11694938317213","category":"Other"},{"name":"SL-14 R/B","line1":"1 14820U 84027B   26085.52740240  .00000518  00000+0  56438-4 0  9994","line2":"2 14820  82.5411 229.2189 0016485 278.4203  81.5145 14.85993298250134","category":"Other"},{"name":"SL-14 R/B","line1":"1 15945U 85069B   26085.50706382  .00000488  00000+0  52308-4 0  9995","line2":"2 15945  82.5304   9.1234 0019896 133.3114 226.9766 14.86450842175335","category":"Other"},{"name":"SL-14 R/B","line1":"1 11672U 80005B   26085.03627040  .00000530  00000+0  50984-4 0  9990","line2":"2 11672  82.5115 291.7272 0017200 107.3287 252.9815 14.90947880478921","category":"Other"}]}